{
  "type": "FeatureCollection",
  "features": [
    {
      "type": "Feature",
      "properties": {
        "norad_id": 54741,
        "name": "GALAXY 35 (G-35)",
        "group": "intelsat",
        "lat": -0.0375233462460044,
        "lon": -143.41279715180275,
        "alt_km": 35778.25714561367,
        "timestamp": "2025-12-03T15:48:02.769430+00:00",
        "meta_object_name": "GALAXY 35 (G-35)",
        "meta_object_id": "2022-170A",
        "meta_epoch": "2025-12-03T06:27:51.256800",
        "meta_mean_motion": 1.00269336,
        "meta_eccentricity": 0.00028442,
        "meta_inclination": 0.0152,
        "meta_ra_of_asc_node": 332.9147,
        "meta_arg_of_pericenter": 288.6956,
        "meta_mean_anomaly": 174.5969,
        "meta_ephemeris_type": 0,
        "meta_classification_type": "U",
        "meta_norad_cat_id": 54741,
        "meta_element_set_no": 999,
        "meta_rev_at_epoch": 1092,
        "meta_bstar": 0,
        "meta_mean_motion_dot": 0,
        "meta_mean_motion_ddot": 0,
        "tle_line1": "1 54741U 22170A   25337.26934325  .00000000  00000+0  00000+0 0  9995",
        "tle_line2": "2 54741   0.0152 332.9147 0002844 288.6956 174.5969  1.00269336 10925"
      },
      "geometry": {
        "type": "Point",
        "coordinates": [
          -143.41279715180275,
          -0.0375233462460044
        ]
      }
    },
    {
      "type": "Feature",
      "properties": {
        "norad_id": 54742,
        "name": "GALAXY 36 (G-36)",
        "group": "intelsat",
        "lat": -0.028421758004032134,
        "lon": -139.26914086991778,
        "alt_km": 35784.23466944504,
        "timestamp": "2025-12-03T15:48:02.769440+00:00",
        "meta_object_name": "GALAXY 36 (G-36)",
        "meta_object_id": "2022-170B",
        "meta_epoch": "2025-12-03T06:28:58.648800",
        "meta_mean_motion": 1.00270419,
        "meta_eccentricity": 6.027e-05,
        "meta_inclination": 0.0166,
        "meta_ra_of_asc_node": 263.0422,
        "meta_arg_of_pericenter": 345.4362,
        "meta_mean_anomaly": 192.1326,
        "meta_ephemeris_type": 0,
        "meta_classification_type": "U",
        "meta_norad_cat_id": 54742,
        "meta_element_set_no": 999,
        "meta_rev_at_epoch": 1080,
        "meta_bstar": 0,
        "meta_mean_motion_dot": -1.66e-06,
        "meta_mean_motion_ddot": 0,
        "tle_line1": "1 54742U 22170B   25337.27012325 -.00000166  00000+0  00000+0 0  9998",
        "tle_line2": "2 54742   0.0166 263.0422 0000602 345.4362 192.1326  1.00270419 10808"
      },
      "geometry": {
        "type": "Point",
        "coordinates": [
          -139.26914086991778,
          -0.028421758004032134
        ]
      }
    },
    {
      "type": "Feature",
      "properties": {
        "norad_id": 57493,
        "name": "GALAXY 37 (G-37)",
        "group": "intelsat",
        "lat": -0.03270190246796844,
        "lon": -177.27973501422454,
        "alt_km": 35783.09665479461,
        "timestamp": "2025-12-03T15:48:02.769450+00:00",
        "meta_object_name": "GALAXY 37 (G-37)",
        "meta_object_id": "2023-112A",
        "meta_epoch": "2025-12-03T06:18:14.677632",
        "meta_mean_motion": 1.00272962,
        "meta_eccentricity": 0.0002473,
        "meta_inclination": 0.0155,
        "meta_ra_of_asc_node": 300.5341,
        "meta_arg_of_pericenter": 317.7387,
        "meta_mean_anomaly": 141.6577,
        "meta_ephemeris_type": 0,
        "meta_classification_type": "U",
        "meta_norad_cat_id": 57493,
        "meta_element_set_no": 999,
        "meta_rev_at_epoch": 857,
        "meta_bstar": 0,
        "meta_mean_motion_dot": 6.7e-07,
        "meta_mean_motion_ddot": 0,
        "tle_line1": "1 57493U 23112A   25337.26266988  .00000067  00000+0  00000+0 0  9995",
        "tle_line2": "2 57493   0.0155 300.5341 0002473 317.7387 141.6577  1.00272962  8579"
      },
      "geometry": {
        "type": "Point",
        "coordinates": [
          -177.27973501422454,
          -0.03270190246796844
        ]
      }
    }
  ]
}